{
    "links": {
        "self": "http://www.neowsapp.com/rest/v1/neo/3454733?api_key=iIulBulltgU6a56xZRHN4H3l9WmuAYTsLGpBGhQ2"
    },
    "id": "3454733",
    "neo_reference_id": "3454733",
    "name": "(2009 FW4)",
    "designation": "2009 FW4",
    "nasa_jpl_url": "http://ssd.jpl.nasa.gov/sbdb.cgi?sstr=3454733",
    "absolute_magnitude_h": 24.6,
    "estimated_diameter": {
        "kilometers": {
            "estimated_diameter_min": 0.0319561887,
            "estimated_diameter_max": 0.0714562102
        },
        "meters": {
            "estimated_diameter_min": 31.9561886721,
            "estimated_diameter_max": 71.4562101727
        },
        "miles": {
            "estimated_diameter_min": 0.0198566489,
            "estimated_diameter_max": 0.0444008168
        },
        "feet": {
            "estimated_diameter_min": 104.8431420431,
            "estimated_diameter_max": 234.436392583
        }
    },
    "is_potentially_hazardous_asteroid": false,
    "close_approach_data": [
        {
            "close_approach_date": "2009-03-17",
            "close_approach_date_full": "2009-Mar-17 03:37",
            "epoch_date_close_approach": 1237261020000,
            "relative_velocity": {
                "kilometers_per_second": "13.399999955",
                "kilometers_per_hour": "48239.9998378499",
                "miles_per_hour": "29974.4598992462"
            },
            "miss_distance": {
                "astronomical": "0.0072568006",
                "lunar": "2.8228954334",
                "kilometers": "1085601.912774722",
                "miles": "674561.7487542836"
            },
            "orbiting_body": "Earth"
        },
        {
            "close_approach_date": "2009-03-17",
            "close_approach_date_full": "2009-Mar-17 07:53",
            "epoch_date_close_approach": 1237276380000,
            "relative_velocity": {
                "kilometers_per_second": "14.2217416711",
                "kilometers_per_hour": "51198.270016081",
                "miles_per_hour": "31812.6139441587"
            },
            "miss_distance": {
                "astronomical": "0.0069061668",
                "lunar": "2.6864988852",
                "kilometers": "1033147.843144716",
                "miles": "641968.3012644408"
            },
            "orbiting_body": "Moon"
        },
        {
            "close_approach_date": "2118-03-21",
            "close_approach_date_full": "2118-Mar-21 04:14",
            "epoch_date_close_approach": 4677279240000,
            "relative_velocity": {
                "kilometers_per_second": "13.9566109614",
                "kilometers_per_hour": "50243.7994610947",
                "miles_per_hour": "31219.5430595897"
            },
            "miss_distance": {
                "astronomical": "0.0202417559",
                "lunar": "7.8740430451",
                "kilometers": "3028123.567699933",
                "miles": "1881588.7345397554"
            },
            "orbiting_body": "Earth"
        },
        {
            "close_approach_date": "2151-04-18",
            "close_approach_date_full": "2151-Apr-18 00:04",
            "epoch_date_close_approach": 5721062640000,
            "relative_velocity": {
                "kilometers_per_second": "27.2503673936",
                "kilometers_per_hour": "98101.3226169658",
                "miles_per_hour": "60956.3468227474"
            },
            "miss_distance": {
                "astronomical": "0.4654657287",
                "lunar": "181.0661684643",
                "kilometers": "69632681.571517869",
                "miles": "43267741.9766858322"
            },
            "orbiting_body": "Earth"
        }
    ],
    "orbital_data": {
        "orbit_id": "13",
        "orbit_determination_date": "2017-04-06 09:00:58",
        "first_observation_date": "2009-03-19",
        "last_observation_date": "2009-04-01",
        "data_arc_in_days": 13,
        "observations_used": 64,
        "orbit_uncertainty": "8",
        "minimum_orbit_intersection": ".0068039",
        "jupiter_tisserand_invariant": "3.782",
        "epoch_osculation": "2454913.5",
        "eccentricity": ".5674754331120788",
        "semi_major_axis": "1.8585489621502",
        "inclination": "3.264754255284608",
        "ascending_node_longitude": "3.617662293867911",
        "orbital_period": "925.4638026566677",
        "perihelion_distance": ".8038680848940105",
        "perihelion_argument": "111.0140831163512",
        "aphelion_distance": "2.913229839406389",
        "perihelion_time": "2454865.524041599590",
        "mean_anomaly": "18.66236688519626",
        "mean_motion": ".3889941443053438",
        "equinox": "J2000",
        "orbit_class": {
            "orbit_class_type": "APO",
            "orbit_class_description": "Near-Earth asteroid orbits which cross the Earth’s orbit similar to that of 1862 Apollo",
            "orbit_class_range": "a (semi-major axis) > 1.0 AU; q (perihelion) < 1.017 AU"
        }
    },
    "is_sentry_object": false
}